{"type": "FeatureCollection", "features": [ {"type": "Feature", "properties": {"norad_id": 66855, "name": "STARLINK-36090", "group": "last-30-days", "lat": -5.657889628536846, "lon": -48.4511268356393, "alt_km": 295.6153729097441, "timestamp": "2025-12-12T05:47:27.527603+00:00", "meta": {"OBJECT_NAME": "STARLINK-36090", "OBJECT_ID": "2025-281H", "EPOCH": "2025-12-10T16:00:01.999584", "MEAN_MOTION": 15.95808262, "ECCENTRICITY": 0.00015962, "INCLINATION": 43.0015, "RA_OF_ASC_NODE": 135.2723, "ARG_OF_PERICENTER": 269.568, "MEAN_ANOMALY": 230.9611, "EPHEMERIS_TYPE": 0, "CLASSIFICATION_TYPE": "U", "NORAD_CAT_ID": 66855, "ELEMENT_SET_NO": 999, "REV_AT_EPOCH": 246, "BSTAR": -0.0026621288, "MEAN_MOTION_DOT": -0.01121625, "MEAN_MOTION_DDOT": 0.00038702579}, "tle": {"line1": "1 66855U 25281H   25344.66668981 -.01121625  38703-3 -26621-2 0  9999", "line2": "2 66855  43.0015 135.2723 0001596 269.5680 230.9611 15.95808262  2465"}}, "geometry": {"type": "Point", "coordinates": [-48.4511268356393, -5.657889628536846]}}, {"type": "Feature", "properties": {"norad_id": 66856, "name": "STARLINK-36072", "group": "last-30-days", "lat": -7.4228402728711105, "lon": -46.52379597641113, "alt_km": 296.03705131357674, "timestamp": "2025-12-12T05:47:27.527615+00:00", "meta": {"OBJECT_NAME": "STARLINK-36072", "OBJECT_ID": "2025-281J", "EPOCH": "2025-12-10T16:00:01.999584", "MEAN_MOTION": 15.95902482, "ECCENTRICITY": 0.00016438, "INCLINATION": 43.0014, "RA_OF_ASC_NODE": 135.2663, "ARG_OF_PERICENTER": 276.2049, "MEAN_ANOMALY": 226.6934, "EPHEMERIS_TYPE": 0, "CLASSIFICATION_TYPE": "U", "NORAD_CAT_ID": 66856, "ELEMENT_SET_NO": 999, "REV_AT_EPOCH": 246, "BSTAR": -0.0027360976, "MEAN_MOTION_DOT": -0.0115835, "MEAN_MOTION_DDOT": 0.00041087948}, "tle": {"line1": "1 66856U 25281J   25344.66668981 -.01158350  41088-3 -27361-2 0  9997", "line2": "2 66856  43.0014 135.2663 0001643 276.2049 226.6934 15.95902482  2464"}}, "geometry": {"type": "Point", "coordinates": [-46.52379597641113, -7.4228402728711105]}}, {"type": "Feature", "properties": {"norad_id": 66857, "name": "STARLINK-36083", "group": "last-30-days", "lat": -8.887770265511563, "lon": -44.90523102507222, "alt_km": 296.1417113230882, "timestamp": "2025-12-12T05:47:27.527626+00:00", "meta": {"OBJECT_NAME": "STARLINK-36083", "OBJECT_ID": "2025-281K", "EPOCH": "2025-12-10T16:00:01.999584", "MEAN_MOTION": 15.95976314, "ECCENTRICITY": 0.00016557, "INCLINATION": 43.0014, "RA_OF_ASC_NODE": 135.2616, "ARG_OF_PERICENTER": 277.0441, "MEAN_ANOMALY": 227.797, "EPHEMERIS_TYPE": 0, "CLASSIFICATION_TYPE": "U", "NORAD_CAT_ID": 66857, "ELEMENT_SET_NO": 999, "REV_AT_EPOCH": 246, "BSTAR": -0.0027805964, "MEAN_MOTION_DOT": -0.01181694, "MEAN_MOTION_DDOT": 0.00042645657}, "tle": {"line1": "1 66857U 25281K   25344.66668981 -.01181694  42646-3 -27806-2 0  9990", "line2": "2 66857  43.0014 135.2616 0001655 277.0441 227.7970 15.95976314  2468"}}, "geometry": {"type": "Point", "coordinates": [-44.90523102507222, -8.887770265511563]}}, {"type": "Feature", "properties": {"norad_id": 66858, "name": "STARLINK-35118", "group": "last-30-days", "lat": -10.460763157094236, "lon": -43.14460371616294, "alt_km": 296.0305920077417, "timestamp": "2025-12-12T05:47:27.527636+00:00", "meta": {"OBJECT_NAME": "STARLINK-35118", "OBJECT_ID": "2025-281L", "EPOCH": "2025-12-10T16:00:01.999584", "MEAN_MOTION": 15.96046904, "ECCENTRICITY": 0.00016257, "INCLINATION": 43.0016, "RA_OF_ASC_NODE": 135.2559, "ARG_OF_PERICENTER": 274.4321, "MEAN_ANOMALY": 232.4648, "EPHEMERIS_TYPE": 0, "CLASSIFICATION_TYPE": "U", "NORAD_CAT_ID": 66858, "ELEMENT_SET_NO": 999, "REV_AT_EPOCH": 246, "BSTAR": -0.002802372, "MEAN_MOTION_DOT": -0.01195394, "MEAN_MOTION_DDOT": 0.00043584987}, "tle": {"line1": "1 66858U 25281L   25344.66668981 -.01195394  43585-3 -28024-2 0  9999", "line2": "2 66858  43.0016 135.2559 0001625 274.4321 232.4648 15.96046904  2461"}}, "geometry": {"type": "Point", "coordinates": [-43.14460371616294, -10.460763157094236]}}, {"type": "Feature", "properties": {"norad_id": 66859, "name": "STARLINK-35646", "group": "last-30-days", "lat": -12.212512805696793, "lon": -41.148322884485765, "alt_km": 296.10779557569185, "timestamp": "2025-12-12T05:47:27.527648+00:00", "meta": {"OBJECT_NAME": "STARLINK-35646", "OBJECT_ID": "2025-281M", "EPOCH": "2025-12-10T16:00:01.999584", "MEAN_MOTION": 15.96125298, "ECCENTRICITY": 0.00016815, "INCLINATION": 43.0016, "RA_OF_ASC_NODE": 135.2504, "ARG_OF_PERICENTER": 276.3454, "MEAN_ANOMALY": 232.8564, "EPHEMERIS_TYPE": 0, "CLASSIFICATION_TYPE": "U", "NORAD_CAT_ID": 66859, "ELEMENT_SET_NO": 999, "REV_AT_EPOCH": 246, "BSTAR": -0.0028252473, "MEAN_MOTION_DOT": -0.01210178, "MEAN_MOTION_DDOT": 0.00044610917}, "tle": {"line1": "1 66859U 25281M   25344.66668981 -.01210178  44611-3 -28252-2 0  9992", "line2": "2 66859  43.0016 135.2504 0001681 276.3454 232.8564 15.96125298  2467"}}, "geometry": {"type": "Point", "coordinates": [-41.148322884485765, -12.212512805696793]}}, {"type": "Feature", "properties": {"norad_id": 66860, "name": "STARLINK-35987", "group": "last-30-days", "lat": -21.14118046909037, "lon": -30.096497240130418, "alt_km": 295.32098017171757, "timestamp": "2025-12-12T05:47:27.527660+00:00", "meta": {"OBJECT_NAME": "STARLINK-35987", "OBJECT_ID": "2025-281N", "EPOCH": "2025-12-10T16:00:01.999584", "MEAN_MOTION": 15.96505755, "ECCENTRICITY": 0.00015818, "INCLINATION": 43.0016, "RA_OF_ASC_NODE": 135.2202, "ARG_OF_PERICENTER": 268.6575, "MEAN_ANOMALY": 252.4584, "EPHEMERIS_TYPE": 0, "CLASSIFICATION_TYPE": "U", "NORAD_CAT_ID": 66860, "ELEMENT_SET_NO": 999, "REV_AT_EPOCH": 246, "BSTAR": -0.0028282072, "MEAN_MOTION_DOT": -0.01236658, "MEAN_MOTION_DDOT": 0.00046592572}, "tle": {"line1": "1 66860U 25281N   25344.66668981 -.01236658  46593-3 -28282-2 0  9999", "line2": "2 66860  43.0016 135.2202 0001581 268.6575 252.4584 15.96505755  2461"}}, "geometry": {"type": "Point", "coordinates": [-30.096497240130418, -21.14118046909037]}}, {"type": "Feature", "properties": {"norad_id": 66861, "name": "STARLINK-35991", "group": "last-30-days", "lat": -15.797166339114957, "lon": -36.918292305186505, "alt_km": 295.7881821234296, "timestamp": "2025-12-12T05:47:27.527670+00:00", "meta": {"OBJECT_NAME": "STARLINK-35991", "OBJECT_ID": "2025-281P", "EPOCH": "2025-12-10T16:00:01.999584", "MEAN_MOTION": 15.96277539, "ECCENTRICITY": 0.00015893, "INCLINATION": 43.0017, "RA_OF_ASC_NODE": 135.2384, "ARG_OF_PERICENTER": 271.8161, "MEAN_ANOMALY": 242.1053, "EPHEMERIS_TYPE": 0, "CLASSIFICATION_TYPE": "U", "NORAD_CAT_ID": 66861, "ELEMENT_SET_NO": 999, "REV_AT_EPOCH": 246, "BSTAR": -0.0028387746, "MEAN_MOTION_DOT": -0.01225954, "MEAN_MOTION_DDOT": 0.00045750931}, "tle": {"line1": "1 66861U 25281P   25344.66668981 -.01225954  45751-3 -28388-2 0  9999", "line2": "2 66861  43.0017 135.2384 0001589 271.8161 242.1053 15.96277539  2462"}}, "geometry": {"type": "Point", "coordinates": [-36.918292305186505, -15.797166339114957]}}, {"type": "Feature", "properties": {"norad_id": 66862, "name": "STARLINK-35974", "group": "last-30-days", "lat": -14.118257552930746, "lon": -38.92664071755092, "alt_km": 296.0429613045144, "timestamp": "2025-12-12T05:47:27.527680+00:00", "meta": {"OBJECT_NAME": "STARLINK-35974", "OBJECT_ID": "2025-281Q", "EPOCH": "2025-12-10T16:00:01.999584", "MEAN_MOTION": 15.96204816, "ECCENTRICITY": 0.00015852, "INCLINATION": 43.0016, "RA_OF_ASC_NODE": 135.2443, "ARG_OF_PERICENTER": 276.2426, "MEAN_ANOMALY": 235.4564, "EPHEMERIS_TYPE": 0, "CLASSIFICATION_TYPE": "U", "NORAD_CAT_ID": 66862, "ELEMENT_SET_NO": 999, "REV_AT_EPOCH": 246, "BSTAR": -0.0028310506, "MEAN_MOTION_DOT": -0.01217847, "MEAN_MOTION_DDOT": 0.00045165679}, "tle": {"line1": "1 66862U 25281Q   25344.66668981 -.01217847  45166-3 -28311-2 0  9998", "line2": "2 66862  43.0016 135.2443 0001585 276.2426 235.4564 15.96204816  2467"}}, "geometry": {"type": "Point", "coordinates": [-38.92664071755092, -14.118257552930746]}}, {"type": "Feature", "properties": {"norad_id": 66863, "name": "STARLINK-36134", "group": "last-30-days", "lat": -17.984581824767073, "lon": -34.214302508938296, "alt_km": 295.66329981712715, "timestamp": "2025-12-12T05:47:27.527690+00:00", "meta": {"OBJECT_NAME": "STARLINK-36134", "OBJECT_ID": "2025-281R", "EPOCH": "2025-12-10T16:00:01.999584", "MEAN_MOTION": 15.96368931, "ECCENTRICITY": 0.00015593, "INCLINATION": 43.002, "RA_OF_ASC_NODE": 135.2311, "ARG_OF_PERICENTER": 271.3805, "MEAN_ANOMALY": 245.4654, "EPHEMERIS_TYPE": 0, "CLASSIFICATION_TYPE": "U", "NORAD_CAT_ID": 66863, "ELEMENT_SET_NO": 999, "REV_AT_EPOCH": 246, "BSTAR": -0.0028390273, "MEAN_MOTION_DOT": -0.01232146, "MEAN_MOTION_DDOT": 0.00046217446}, "tle": {"line1": "1 66863U 25281R   25344.66668981 -.01232146  46217-3 -28390-2 0  9993", "line2": "2 66863  43.0020 135.2311 0001559 271.3805 245.4654 15.96368931  2465"}}, "geometry": {"type": "Point", "coordinates": [-34.214302508938296, -17.984581824767073]}}, {"type": "Feature", "properties": {"norad_id": 66864, "name": "STARLINK-36070", "group": "last-30-days", "lat": -19.5289608214941, "lon": -32.23547969172634, "alt_km": 295.6443877492493, "timestamp": "2025-12-12T05:47:27.527700+00:00", "meta": {"OBJECT_NAME": "STARLINK-36070", "OBJECT_ID": "2025-281S", "EPOCH": "2025-12-10T16:00:01.999584", "MEAN_MOTION": 15.96435157, "ECCENTRICITY": 0.00015459, "INCLINATION": 43.0019, "RA_OF_ASC_NODE": 135.2256, "ARG_OF_PERICENTER": 273.7453, "MEAN_ANOMALY": 245.1559, "EPHEMERIS_TYPE": 0, "CLASSIFICATION_TYPE": "U", "NORAD_CAT_ID": 66864, "ELEMENT_SET_NO": 999, "REV_AT_EPOCH": 246, "BSTAR": -0.0028280569, "MEAN_MOTION_DOT": -0.01231853, "MEAN_MOTION_DDOT": 0.00046228589}, "tle": {"line1": "1 66864U 25281S   25344.66668981 -.01231853  46229-3 -28281-2 0  9990", "line2": "2 66864  43.0019 135.2256 0001545 273.7453 245.1559 15.96435157  2468"}}, "geometry": {"type": "Point", "coordinates": [-32.23547969172634, -19.5289608214941]}}]}